[
{"Name":"Market Street Station","Docks":"21.0","Street":"1600 Market St","City":"Denver","State":"CO","Zip":"80202"},
{"Name":"9th and Santa Fe","Docks":"15.0","Street":"923 W 9th Ave","City":"Denver","State":"CO","Zip":"80204"},
{"Name":"Louisiana Pearl Light Rail","Docks":"15.0","Street":"1300 S Washington St","City":"Denver","State":"CO","Zip":"80210"},
{"Name":"16th and Platte","Docks":"19.0","Street":"1601 Platte St","City":"Denver","State":"CO","Zip":"80202"},
{"Name":"19th and Pearl","Docks":"23.0","Street":"620 E 19th Ave","City":"Denver","State":"CO","Zip":"80203"},
{"Name":"7th and Grant","Docks":"15.0","Street":"721 Grant St","City":"Denver","State":"CO","Zip":"80203"},
{"Name":"1551 Lafayette","Docks":"17.0","Street":"1551 Lafayette St","City":"Denver","State":"CO","Zip":"80218"},
{"Name":"16th and Broadway","Docks":"11.0","Street":"1600 Broadway","City":"Denver","State":"CO","Zip":"80202"},
{"Name":"Bayaud and Emerson","Docks":"19.0","Street":"910 E Bayaud Ave","City":"Denver","State":"CO","Zip":"80209"},
{"Name":"Buchtel and High Light Rail","Docks":"19.0","Street":"1901 Buchtel Blvd","City":"Denver","State":"CO","Zip":"80210"},
{"Name":"Denver Museum of Nature and Science","Docks":"21.0","Street":"2001 Colorado Blvd","City":"Denver","State":"CO","Zip":"80205"},
{"Name":"13th and Pearl","Docks":"13.0","Street":"1291 Pearl St","City":"Denver","State":"CO","Zip":"80203"},
{"Name":"Denver Public Library","Docks":"19.0","Street":"100 W 13th Ave","City":"Denver","State":"CO","Zip":"80204"},
{"Name":"Denver Zoo","Docks":"22.0","Street":"2300 Steele St","City":"Denver","State":"CO","Zip":"80205"},
{"Name":"16th and Little Raven","Docks":"13.0","Street":"1600 Little Raven","City":"Denver","State":"CO","Zip":"80202"},
{"Name":"11th and Broadway","Docks":"11.0","Street":"1085 Broadway","City":"Denver","State":"CO","Zip":"80204"},
{"Name":"10th and Osage","Docks":"15.0","Street":"1005 Osage St","City":"Denver","State":"CO","Zip":"80204"},
{"Name":"1st and Broadway","Docks":"22.0","Street":"10 W 1st Ave","City":"Denver","State":"CO","Zip":"80223"},
{"Name":"18th and California","Docks":"11.0","Street":"1799 California St","City":"Denver","State":"CO","Zip":"80202"},
{"Name":"9th and Curtis","Docks":"17.0","Street":"899 Curtis St","City":"Denver","State":"CO","Zip":"80204"},
{"Name":"15th and Curtis","Docks":"15.0","Street":"1501 Curtis St","City":"Denver","State":"CO","Zip":"80202"},
{"Name":"1550 Glenarm","Docks":"13.0","Street":"1550 Glenarm Pl","City":"Denver","State":"CO","Zip":"80202"},
{"Name":"12th and Sherman","Docks":"13.0","Street":"1220 Sherman St","City":"Denver","State":"CO","Zip":"80203"},
{"Name":"17th and Downing","Docks":"15.0","Street":"1100 E 17th Ave","City":"Denver","State":"CO","Zip":"80218"},
{"Name":"9th and Downing","Docks":"11.0","Street":"920 Downing St","City":"Denver","State":"CO","Zip":"80218"},
{"Name":"2045 Franklin","Docks":"13.0","Street":"2045 Franklin St","City":"Denver","State":"CO","Zip":"80205"},
{"Name":"Ellsworth and Madison","Docks":"11.0","Street":"10 S Madison St","City":"Denver","State":"CO","Zip":"80209"},
{"Name":"32nd and Clay","Docks":"18.0","Street":"3199 Clay St","City":"Denver","State":"CO","Zip":"80211"},
{"Name":"Denver Health","Docks":"11.0","Street":"777 Bannock St","City":"Denver","State":"CO","Zip":"80204"},
{"Name":"Cherry Creek Mall","Docks":"15.0","Street":"2800 E 1st Ave","City":"Denver","State":"CO","Zip":"80206"},
{"Name":"28th and Larimer","Docks":"9.0","Street":"2751 Larimer St","City":"Denver","State":"CO","Zip":"80206"},
{"Name":"Florida and S Pearl","Docks":"9.0","Street":"650 E Florida Ave","City":"Denver","State":"CO","Zip":"80210"},
{"Name":"16th and Sherman","Docks":"13.0","Street":"1625 Sherman St","City":"Denver","State":"CO","Zip":"80203"},
{"Name":"22nd and Market","Docks":"13.0","Street":"2200 Market St","City":"Denver","State":"CO","Zip":"80205"},
{"Name":"Broadway and Walnut","Docks":"13.0","Street":"2490 N Broadway","City":"Denver","State":"CO","Zip":"80205"},
{"Name":"12th and Columbine","Docks":"13.0","Street":"2502 E 12th Ave","City":"Denver","State":"CO","Zip":"80206"},
{"Name":"1450 Wazee","Docks":"11.0","Street":"1450 Wazee St","City":"Denver","State":"CO","Zip":"80202"},
{"Name":"9th and Logan","Docks":"15.0","Street":"899 Logan St","City":"Denver","State":"CO","Zip":"80203"},
{"Name":"13th and Marion","Docks":"15.0","Street":"1279 Marion St","City":"Denver","State":"CO","Zip":"80218"},
{"Name":"13th and Speer","Docks":"17.0","Street":"1301 Speer Blvd","City":"Denver","State":"CO","Zip":"80204"},
{"Name":"17th and Franklin","Docks":"14.0","Street":"1695 Franklin St","City":"Denver","State":"CO","Zip":"80218"},
{"Name":"18th and Arapahoe","Docks":"18.0","Street":"1800 Arapahoe St","City":"Denver","State":"CO","Zip":"80202"},
{"Name":"Union Station Light Rail at 17th St","Docks":"17.0","Street":"2050 17th St","City":"Denver","State":"CO","Zip":"80202"},
{"Name":"Louisiana and Franklin","Docks":"18.0","Street":"1600 E Louisiana Ave","City":"Denver","State":"CO","Zip":"80210"},
{"Name":"17th and Curtis","Docks":"19.0","Street":"950 17th St","City":"Denver","State":"CO","Zip":"80202"},
{"Name":"Colfax and Columbine","Docks":"15.0","Street":"2451 E Colfax Ave","City":"Denver","State":"CO","Zip":"80206"},
{"Name":"14th and Welton","Docks":"19.0","Street":"890 14th St","City":"Denver","State":"CO","Zip":"80202"},
{"Name":"17th and Blake","Docks":"19.0","Street":"1509 17th St","City":"Denver","State":"CO","Zip":"80202"},
{"Name":"15th and Delgany","Docks":"7.0","Street":"1515 Delgany St","City":"Denver","State":"CO","Zip":"80202"},
{"Name":"16th and Boulder","Docks":"15.0","Street":"1615 Boulder St","City":"Denver","State":"CO","Zip":"80211"},
{"Name":"11th and Emerson","Docks":"11.0","Street":"900 E 11th Ave","City":"Denver","State":"CO","Zip":"80218"},
{"Name":"17th and Race","Docks":"15.0","Street":"2001 E 17th Ave","City":"Denver","State":"CO","Zip":"80206"},
{"Name":"19th and Wynkoop","Docks":"11.0","Street":"1900 Wynkoop St","City":"Denver","State":"CO","Zip":"80202"},
{"Name":"6th and Clarkson","Docks":"17.0","Street":"771 E 6th Ave","City":"Denver","State":"CO","Zip":"80203"},
{"Name":"Colfax and Gaylord","Docks":"15.0","Street":"1490 Gaylord St","City":"Denver","State":"CO","Zip":"80206"},
{"Name":"4th and Walnut","Docks":"9.0","Street":"398 Walnut St","City":"Denver","State":"CO","Zip":"80204"},
{"Name":"Five Points","Docks":"7.0","Street":"2700 Welton St","City":"Denver","State":"CO","Zip":"80205"},
{"Name":"Webb Building","Docks":"11.0","Street":"201 W Colfax Ave","City":"Denver","State":"CO","Zip":"80202"},
{"Name":"3rd and Milwaukee","Docks":"15.0","Street":"299 Milwaukee St","City":"Denver","State":"CO","Zip":"80206"},
{"Name":"Colfax and Steele","Docks":"22.0","Street":"1509 Steele St","City":"Denver","State":"CO","Zip":"80206"},
{"Name":"32nd and Julian","Docks":"23.0","Street":"3199 Julian St","City":"Denver","State":"CO","Zip":"80211"},
{"Name":"14th and Ogden","Docks":"13.0","Street":"1425 Ogden St","City":"Denver","State":"CO","Zip":"80218"},
{"Name":"Denver Botanic Gardens","Docks":"19.0","Street":"1151 York St","City":"Denver","State":"CO","Zip":"80206"},
{"Name":"14th and Champa","Docks":"23.0","Street":"700 14th St","City":"Denver","State":"CO","Zip":"80202"},
{"Name":"20th and Chestnut","Docks":"15.0","Street":"2095 Chestnut Pl","City":"Denver","State":"CO","Zip":"80202"},
{"Name":"15th and Cleveland","Docks":"11.0","Street":"101 W Colfax Ave","City":"Denver","State":"CO","Zip":"80202"},
{"Name":"14th and Elati","Docks":"11.0","Street":"400 W 14th Ave","City":"Denver","State":"CO","Zip":"80204"},
{"Name":"Bayaud and Pennsylvania","Docks":"11.0","Street":"525 E Bayaud Ave","City":"Denver","State":"CO","Zip":"80209"},
{"Name":"17th and Pearl","Docks":"17.0","Street":"523 E 17th Ave","City":"Denver","State":"CO","Zip":"80203"},
{"Name":"17th and Larimer","Docks":"15.0","Street":"1281 17th St","City":"Denver","State":"CO","Zip":"80202"},
{"Name":"19th and Market","Docks":"15.0","Street":"1899 Market St","City":"Denver","State":"CO","Zip":"80202"},
{"Name":"23rd and Clay","Docks":"13.0","Street":"2301 Clay St","City":"Denver","State":"CO","Zip":"80211"},
{"Name":"Colfax and Garfield","Docks":"17.0","Street":"1535 Garfield St","City":"Denver","State":"CO","Zip":"80206"},
{"Name":"17th St and Tejon","Docks":"17.0","Street":"2701 17th St","City":"Denver","State":"CO","Zip":"80211"},
{"Name":"Park Ave West and Tremont","Docks":"15.0","Street":"355 Park Ave W","City":"Denver","State":"CO","Zip":"80205"},
{"Name":"REI","Docks":"19.0","Street":"1416 Platte St","City":"Denver","State":"CO","Zip":"80202"},
{"Name":"22nd and Pennsylvania","Docks":"15.0","Street":"301 22nd St","City":"Denver","State":"CO","Zip":"80205"},
{"Name":"1350 Larimer","Docks":"15.0","Street":"1350 Larimer St","City":"Denver","State":"CO","Zip":"80202"},
{"Name":"25th and Lawrence","Docks":"9.0","Street":"2500 Lawrence St","City":"Denver","State":"CO","Zip":"80205"},
{"Name":"Pepsi Center","Docks":"17.0","Street":"1000 Chopper Cir","City":"Denver","State":"CO","Zip":"80204"},
{"Name":"DU Driscoll Center","Docks":"15.0","Street":"2000 E Asbury Ave","City":"Denver","State":"CO","Zip":"80210"},
{"Name":"33rd and Arapahoe","Docks":"13.0","Street":"3310 Arapahoe St","City":"Denver","State":"CO","Zip":"80205"},
{"Name":"29th and Zuni","Docks":"17.0","Street":"2417 W 29th Ave","City":"Denver","State":"CO","Zip":"80211"},
{"Name":"11th and Delaware","Docks":"13.0","Street":"1095 Deleware St","City":"Denver","State":"CO","Zip":"80204"}
]